[{"OBJECT_NAME":"STARLINK-2514","OBJECT_ID":"2021-036BH","EPOCH":"2026-03-10T00:00:02.999808","MEAN_MOTION":15.29233473,"ECCENTRICITY":0.00013984,"INCLINATION":53.1518,"RA_OF_ASC_NODE":99.2959,"ARG_OF_PERICENTER":94.8931,"MEAN_ANOMALY":6.894,"EPHEMERIS_TYPE":0,"CLASSIFICATION_TYPE":"U","NORAD_CAT_ID":48331,"ELEMENT_SET_NO":999,"REV_AT_EPOCH":579,"BSTAR":0.0039897327,"MEAN_MOTION_DOT":0.00116147,"MEAN_MOTION_DDOT":0},{"OBJECT_NAME":"JILIN-1 GAOFEN 03D50","OBJECT_ID":"2022-167J","EPOCH":"2026-03-09T22:35:59.947584","MEAN_MOTION":15.32279726,"ECCENTRICITY":0.00065764,"INCLINATION":97.6731,"RA_OF_ASC_NODE":232.9458,"ARG_OF_PERICENTER":101.1473,"MEAN_ANOMALY":259.0507,"EPHEMERIS_TYPE":0,"CLASSIFICATION_TYPE":"U","NORAD_CAT_ID":54690,"ELEMENT_SET_NO":999,"REV_AT_EPOCH":18014,"BSTAR":0.00049467973,"MEAN_MOTION_DOT":0.00015359,"MEAN_MOTION_DDOT":0}]
